{
"type": "FeatureCollection",
"name": "Perhitungan Hasil Survei",
"crs": { "type": "name", "properties": { "name": "urn:ogc:def:crs:OGC:1.3:CRS84" } },
"features": [
{ "type": "Feature", "properties": { "Peringkat": 1, "Nama Halte": "Halte Malioboro 2 di Depan BPD DIY dan Government Tourist Information Centre", "Observer": "Reginald Maghfirot GZ", "Skor Aksesibilitas (0-100)": 100.0, "Skor Kondisi (0-100)": 75.0, "Skor Lingkungan (0-100)": 42, "SKOR TOTAL (AHP) (%)": 76.66111111, "Longitude": 110.3656135, "Latitude": -7.795173089, "Klasifikasi halte": "Tinggi" }, "geometry": { "type": "Point", "coordinates": [ 110.3656135, -7.795173089 ] } },
{ "type": "Feature", "properties": { "Peringkat": 2, "Nama Halte": "Halte Hayam Wuruk Barat di Depan Taman Kanak Kanak Negeri 5 dan Dinas Pendidikan Kota Yogyakarta, serta di Sebrang Indomaret Lempuyangan", "Observer": "Reginald Maghfirot GZ", "Skor Aksesibilitas (0-100)": 75.4, "Skor Kondisi (0-100)": 50.0, "Skor Lingkungan (0-100)": 70, "SKOR TOTAL (AHP) (%)": 65.66444444, "Longitude": 110.3726472, "Latitude": -7.795611353, "Klasifikasi halte": "Tinggi" }, "geometry": { "type": "Point", "coordinates": [ 110.3726472, -7.795611353 ] } },
{ "type": "Feature", "properties": { "Peringkat": 6, "Nama Halte": "Halte Jend. Sudirman (Santika)", "Observer": "Mohammad Radyt Fahrasya", "Skor Aksesibilitas (0-100)": 76.1, "Skor Kondisi (0-100)": 63.0, "Skor Lingkungan (0-100)": 42, "SKOR TOTAL (AHP) (%)": 62.90222222, "Longitude": 110.3688244, "Latitude": -7.782784951, "Klasifikasi halte": "Tinggi" }, "geometry": { "type": "Point", "coordinates": [ 110.3688244, -7.782784951 ] } },
{ "type": "Feature", "properties": { "Peringkat": 5, "Nama Halte": "Halte TJ Mangkubumi 1", "Observer": "Mohammad Radyt Fahrasya", "Skor Aksesibilitas (0-100)": 78.3, "Skor Kondisi (0-100)": 51.0, "Skor Lingkungan (0-100)": 54, "SKOR TOTAL (AHP) (%)": 63.00666667, "Longitude": 110.3668458, "Latitude": -7.784746411, "Klasifikasi halte": "Tinggi" }, "geometry": { "type": "Point", "coordinates": [ 110.3668458, -7.784746411 ] } },
{ "type": "Feature", "properties": { "Peringkat": 3, "Nama Halte": "Halte TJ Diponegoro", "Observer": "Mohammad Radyt Fahrasya", "Skor Aksesibilitas (0-100)": 74.6, "Skor Kondisi (0-100)": 26.5, "Skor Lingkungan (0-100)": 94, "SKOR TOTAL (AHP) (%)": 63.89944444, "Longitude": 110.3625529, "Latitude": -7.782872521, "Klasifikasi halte": "Tinggi" }, "geometry": { "type": "Point", "coordinates": [ 110.3625529, -7.782872521 ] } },
{ "type": "Feature", "properties": { "Peringkat": 4, "Nama Halte": "Halte Senopati 2 di Depan Taman Pintar Yogyakarta", "Observer": "Reginald Maghfirot GZ", "Skor Aksesibilitas (0-100)": 73.9, "Skor Kondisi (0-100)": 25.0, "Skor Lingkungan (0-100)": 94, "SKOR TOTAL (AHP) (%)": 63.12, "Longitude": 110.3671701, "Latitude": -7.801403484, "Klasifikasi halte": "Tinggi" }, "geometry": { "type": "Point", "coordinates": [ 110.3671701, -7.801403484 ] } },
{ "type": "Feature", "properties": { "Peringkat": 7, "Nama Halte": "Halte Sudirman Bumiputera", "Observer": "Mohammad Radyt Fahrasya", "Skor Aksesibilitas (0-100)": 79.0, "Skor Kondisi (0-100)": 39.0, "Skor Lingkungan (0-100)": 54, "SKOR TOTAL (AHP) (%)": 59.36111111, "Longitude": 110.3695586, "Latitude": -7.782965838, "Klasifikasi halte": "Sedang" }, "geometry": { "type": "Point", "coordinates": [ 110.3695586, -7.782965838 ] } },
{ "type": "Feature", "properties": { "Peringkat": 8, "Nama Halte": "Halte Senopati 2 di Jalan Panembahan Senopati dekat Taman Pintar", "Observer": "Reginald Maghfirot GZ", "Skor Aksesibilitas (0-100)": 71.0, "Skor Kondisi (0-100)": 25.0, "Skor Lingkungan (0-100)": 82, "SKOR TOTAL (AHP) (%)": 58.79444444, "Longitude": 110.3671291, "Latitude": -7.801495688, "Klasifikasi halte": "Sedang" }, "geometry": { "type": "Point", "coordinates": [ 110.3671291, -7.801495688 ] } },
{ "type": "Feature", "properties": { "Peringkat": 9, "Nama Halte": "Halte Senopati 1 di Jalan Panembahan Senopati dekat Parkiran Bus", "Observer": "Reginald Maghfirot GZ", "Skor Aksesibilitas (0-100)": 70.3, "Skor Kondisi (0-100)": 25.0, "Skor Lingkungan (0-100)": 82, "SKOR TOTAL (AHP) (%)": 58.50666667, "Longitude": 110.3670972, "Latitude": -7.801566188, "Klasifikasi halte": "Sedang" }, "geometry": { "type": "Point", "coordinates": [ 110.3670972, -7.801566188 ] } },
{ "type": "Feature", "properties": { "Peringkat": 10, "Nama Halte": "TPB Wolter Monginsidi", "Observer": "Mohammad Radyt Fahrasya", "Skor Aksesibilitas (0-100)": 55.1, "Skor Kondisi (0-100)": 25.5, "Skor Lingkungan (0-100)": 100, "SKOR TOTAL (AHP) (%)": 57.12166667, "Longitude": 110.366726, "Latitude": -7.777881498, "Klasifikasi halte": "Sedang" }, "geometry": { "type": "Point", "coordinates": [ 110.366726, -7.777881498 ] } },
{ "type": "Feature", "properties": { "Peringkat": 11, "Nama Halte": "Halte Malioboro 1 di Jalan Masuk Malioboro dan di Sebrang Jogja Library Center", "Observer": "Reginald Maghfirot GZ", "Skor Aksesibilitas (0-100)": 70.3, "Skor Kondisi (0-100)": 50.0, "Skor Lingkungan (0-100)": 30, "SKOR TOTAL (AHP) (%)": 53.12333333, "Longitude": 110.3661057, "Latitude": -7.790905356, "Klasifikasi halte": "Sedang" }, "geometry": { "type": "Point", "coordinates": [ 110.3661057, -7.790905356 ] } },
{ "type": "Feature", "properties": { "Peringkat": 12, "Nama Halte": "Halte SMP N 14", "Observer": "Mohammad Radyt Fahrasya", "Skor Aksesibilitas (0-100)": 52.9, "Skor Kondisi (0-100)": 27.0, "Skor Lingkungan (0-100)": 70, "SKOR TOTAL (AHP) (%)": 48.87555556, "Longitude": 110.3598916, "Latitude": -7.786639736, "Klasifikasi halte": "Sedang" }, "geometry": { "type": "Point", "coordinates": [ 110.3598916, -7.786639736 ] } },
{ "type": "Feature", "properties": { "Peringkat": 13, "Nama Halte": "Halte KHA Dahlan Selatan di Depan Balai Kota Lama dan Masjid Attahkim Kodya Jogjakarta", "Observer": "Reginald Maghfirot GZ", "Skor Aksesibilitas (0-100)": 64.5, "Skor Kondisi (0-100)": 25.0, "Skor Lingkungan (0-100)": 54, "SKOR TOTAL (AHP) (%)": 48.81111111, "Longitude": 110.3601766, "Latitude": -7.80124356, "Klasifikasi halte": "Sedang" }, "geometry": { "type": "Point", "coordinates": [ 110.3601766, -7.80124356 ] } },
{ "type": "Feature", "properties": { "Peringkat": 15, "Nama Halte": "Halte Sugiono 2 di Depan Masjid Baiturohim", "Observer": "Mohammad Radyt Fahrasya", "Skor Aksesibilitas (0-100)": 37.7, "Skor Kondisi (0-100)": 50.5, "Skor Lingkungan (0-100)": 54, "SKOR TOTAL (AHP) (%)": 46.15166667, "Longitude": 110.3718015, "Latitude": -7.815148378, "Klasifikasi halte": "Sedang" }, "geometry": { "type": "Point", "coordinates": [ 110.3718015, -7.815148378 ] } },
{ "type": "Feature", "properties": { "Peringkat": 14, "Nama Halte": "Halte KHA Dahlan Utara di sebrang Balai Kota Lama dan Masjid Attahkim Kodya Yogyakarta", "Observer": "Reginald Maghfirot GZ", "Skor Aksesibilitas (0-100)": 59.4, "Skor Kondisi (0-100)": 25.0, "Skor Lingkungan (0-100)": 54, "SKOR TOTAL (AHP) (%)": 46.71444444, "Longitude": 110.360401, "Latitude": -7.801152961, "Klasifikasi halte": "Sedang" }, "geometry": { "type": "Point", "coordinates": [ 110.360401, -7.801152961 ] } },
{ "type": "Feature", "properties": { "Peringkat": 16, "Nama Halte": "TPB Lempuyangan 2 di Depan Taman Rukun Warga 08 Tegal Kemuning", "Observer": "Reginald Maghfirot GZ", "Skor Aksesibilitas (0-100)": 52.2, "Skor Kondisi (0-100)": 50.0, "Skor Lingkungan (0-100)": 30, "SKOR TOTAL (AHP) (%)": 45.68222222, "Longitude": 110.3735717, "Latitude": -7.790516123, "Klasifikasi halte": "Sedang" }, "geometry": { "type": "Point", "coordinates": [ 110.3735717, -7.790516123 ] } },
{ "type": "Feature", "properties": { "Peringkat": 18, "Nama Halte": "Halte RSI Hidayatullah di Depan RSI Hidayatullah", "Observer": "Mohammad Radyt Fahrasya", "Skor Aksesibilitas (0-100)": 23.9, "Skor Kondisi (0-100)": 50.0, "Skor Lingkungan (0-100)": 70, "SKOR TOTAL (AHP) (%)": 44.49222222, "Longitude": 110.3874817, "Latitude": -7.815572513, "Klasifikasi halte": "Sedang" }, "geometry": { "type": "Point", "coordinates": [ 110.3874817, -7.815572513 ] } },
{ "type": "Feature", "properties": { "Peringkat": 17, "Nama Halte": "Halte Cokroaminoto SMA 1 /RS AMC Muhammadiyah di Depan RS AMC Muhammadiyah dan di seberang SMA 1 Teladan Yogyakartw", "Observer": "Reginald Maghfirot GZ", "Skor Aksesibilitas (0-100)": 55.8, "Skor Kondisi (0-100)": 25.0, "Skor Lingkungan (0-100)": 54, "SKOR TOTAL (AHP) (%)": 45.23444444, "Longitude": 110.3521427, "Latitude": -7.799412499, "Klasifikasi halte": "Sedang" }, "geometry": { "type": "Point", "coordinates": [ 110.3521427, -7.799412499 ] } },
{ "type": "Feature", "properties": { "Peringkat": 20, "Nama Halte": "Halte Museum Biologi di Jalan Sultan Agung Depan Soto Mie Pak Kadir", "Observer": "Reginald Maghfirot GZ", "Skor Aksesibilitas (0-100)": 57.2, "Skor Kondisi (0-100)": 37.5, "Skor Lingkungan (0-100)": 30, "SKOR TOTAL (AHP) (%)": 43.64055556, "Longitude": 110.3740983, "Latitude": -7.801711288, "Klasifikasi halte": "Sedang" }, "geometry": { "type": "Point", "coordinates": [ 110.3740983, -7.801711288 ] } },
{ "type": "Feature", "properties": { "Peringkat": 19, "Nama Halte": "Halte Portabel Trans Jogja", "Observer": "Mohammad Radyt Fahrasya", "Skor Aksesibilitas (0-100)": 52.9, "Skor Kondisi (0-100)": 13.0, "Skor Lingkungan (0-100)": 70, "SKOR TOTAL (AHP) (%)": 44.28666667, "Longitude": 110.3664958, "Latitude": -7.777833012, "Klasifikasi halte": "Sedang" }, "geometry": { "type": "Point", "coordinates": [ 110.3664958, -7.777833012 ] } },
{ "type": "Feature", "properties": { "Peringkat": 21, "Nama Halte": "Halte Kusumanegara 4 di Depan Kantor Kementrian Agraria dan Tata Ruang / Badan Pertahanan Nasional Jogja", "Observer": "Reginald Maghfirot GZ", "Skor Aksesibilitas (0-100)": 39.9, "Skor Kondisi (0-100)": 25.0, "Skor Lingkungan (0-100)": 70, "SKOR TOTAL (AHP) (%)": 42.87555556, "Longitude": 110.3933546, "Latitude": -7.802256588, "Klasifikasi halte": "Sedang" }, "geometry": { "type": "Point", "coordinates": [ 110.3933546, -7.802256588 ] } },
{ "type": "Feature", "properties": { "Peringkat": 22, "Nama Halte": "Halte Portable UTY di Depan Kebab Nime didekat Pegadaian", "Observer": "Reginald Maghfirot GZ", "Skor Aksesibilitas (0-100)": 34.8, "Skor Kondisi (0-100)": 25.0, "Skor Lingkungan (0-100)": 70, "SKOR TOTAL (AHP) (%)": 40.77888889, "Longitude": 110.3883905, "Latitude": -7.805580688, "Klasifikasi halte": "Sedang" }, "geometry": { "type": "Point", "coordinates": [ 110.3883905, -7.805580688 ] } },
{ "type": "Feature", "properties": { "Peringkat": 23, "Nama Halte": "Halte Ngabean di Dalam Area Parkir Ngabean", "Observer": "Reginald Maghfirot GZ", "Skor Aksesibilitas (0-100)": 48.6, "Skor Kondisi (0-100)": 37.5, "Skor Lingkungan (0-100)": 30, "SKOR TOTAL (AHP) (%)": 40.105, "Longitude": 110.356361, "Latitude": -7.803703088, "Klasifikasi halte": "Sedang" }, "geometry": { "type": "Point", "coordinates": [ 110.356361, -7.803703088 ] } },
{ "type": "Feature", "properties": { "Peringkat": 24, "Nama Halte": "Halte Pakualaman di Jalan Sultan Agung Dekat Toko Jogja Kampus", "Observer": "Reginald Maghfirot GZ", "Skor Aksesibilitas (0-100)": 58.0, "Skor Kondisi (0-100)": 25.0, "Skor Lingkungan (0-100)": 30, "SKOR TOTAL (AHP) (%)": 39.87222222, "Longitude": 110.3757321, "Latitude": -7.801687288, "Klasifikasi halte": "Rendah" }, "geometry": { "type": "Point", "coordinates": [ 110.3757321, -7.801687288 ] } },
{ "type": "Feature", "properties": { "Peringkat": 25, "Nama Halte": "Halte Ngabean (Dana Keistemewaan) di Jalan Kolonel Sugiyono di Samping Gang Kampung Pujokusuman", "Observer": "Reginald Maghfirot GZ", "Skor Aksesibilitas (0-100)": 39.9, "Skor Kondisi (0-100)": 25.0, "Skor Lingkungan (0-100)": 54, "SKOR TOTAL (AHP) (%)": 38.69777778, "Longitude": 110.3701451, "Latitude": -7.814858788, "Klasifikasi halte": "Rendah" }, "geometry": { "type": "Point", "coordinates": [ 110.3701451, -7.814858788 ] } },
{ "type": "Feature", "properties": { "Peringkat": 26, "Nama Halte": "Halte Sosrowijayan di Jl. Gandekan", "Observer": "Reginald Maghfirot GZ", "Skor Aksesibilitas (0-100)": 66.7, "Skor Kondisi (0-100)": 25.5, "Skor Lingkungan (0-100)": 6, "SKOR TOTAL (AHP) (%)": 37.34611111, "Longitude": 110.3615118, "Latitude": -7.792450662, "Klasifikasi halte": "Rendah" }, "geometry": { "type": "Point", "coordinates": [ 110.3615118, -7.792450662 ] } },
{ "type": "Feature", "properties": { "Peringkat": 27, "Nama Halte": "Halte TJ Mangkubumi 2", "Observer": "Mohammad Radyt Fahrasya", "Skor Aksesibilitas (0-100)": 56.5, "Skor Kondisi (0-100)": 26.5, "Skor Lingkungan (0-100)": 18, "SKOR TOTAL (AHP) (%)": 36.61388889, "Longitude": 110.3665165, "Latitude": -7.787650231, "Klasifikasi halte": "Rendah" }, "geometry": { "type": "Point", "coordinates": [ 110.3665165, -7.787650231 ] } },
{ "type": "Feature", "properties": { "Peringkat": 28, "Nama Halte": "Halte Ngeksigondo (Basen) di Depan Kantor Balai Pengembangan Kompetensi dan Wisma", "Observer": "Mohammad Radyt Fahrasya", "Skor Aksesibilitas (0-100)": 25.4, "Skor Kondisi (0-100)": 13.5, "Skor Lingkungan (0-100)": 82, "SKOR TOTAL (AHP) (%)": 36.27833333, "Longitude": 110.3949562, "Latitude": -7.819134048, "Klasifikasi halte": "Rendah" }, "geometry": { "type": "Point", "coordinates": [ 110.3949562, -7.819134048 ] } },
{ "type": "Feature", "properties": { "Peringkat": 29, "Nama Halte": "HALTE TJ CIK DI TIRO 2", "Observer": "Rayhan Ardian", "Skor Aksesibilitas (0-100)": 68.8, "Skor Kondisi (0-100)": 0.0, "Skor Lingkungan (0-100)": 30, "SKOR TOTAL (AHP) (%)": 36.11777778, "Longitude": 110.375182, "Latitude": -7.78119793, "Klasifikasi halte": "Rendah" }, "geometry": { "type": "Point", "coordinates": [ 110.375182, -7.78119793 ] } },
{ "type": "Feature", "properties": { "Peringkat": 30, "Nama Halte": "Halte Kolonel Sugiono atau Museum Perjuangan di Samping Masjid Baiturrahim", "Observer": "Reginald Maghfirot GZ", "Skor Aksesibilitas (0-100)": 38.4, "Skor Kondisi (0-100)": 25.0, "Skor Lingkungan (0-100)": 42, "SKOR TOTAL (AHP) (%)": 34.94777778, "Longitude": 110.3717979, "Latitude": -7.815159263, "Klasifikasi halte": "Rendah" }, "geometry": { "type": "Point", "coordinates": [ 110.3717979, -7.815159263 ] } },
{ "type": "Feature", "properties": { "Peringkat": 33, "Nama Halte": "Halte Tegal Gendu 2", "Observer": "Mohammad Radyt Fahrasya", "Skor Aksesibilitas (0-100)": 20.3, "Skor Kondisi (0-100)": 50.5, "Skor Lingkungan (0-100)": 30, "SKOR TOTAL (AHP) (%)": 32.73166667, "Longitude": 110.3913245, "Latitude": -7.825830131, "Klasifikasi halte": "Rendah" }, "geometry": { "type": "Point", "coordinates": [ 110.3913245, -7.825830131 ] } },
{ "type": "Feature", "properties": { "Peringkat": 32, "Nama Halte": "Halte Jokteng Kulon di Depan Medi Farma", "Observer": "Reginald Maghfirot GZ", "Skor Aksesibilitas (0-100)": 41.3, "Skor Kondisi (0-100)": 25.0, "Skor Lingkungan (0-100)": 30, "SKOR TOTAL (AHP) (%)": 33.00666667, "Longitude": 110.3573861, "Latitude": -7.813175088, "Klasifikasi halte": "Rendah" }, "geometry": { "type": "Point", "coordinates": [ 110.3573861, -7.813175088 ] } },
{ "type": "Feature", "properties": { "Peringkat": 31, "Nama Halte": "Halte Portable Wirogunan di Depan KANWIL DITJENPAS DIY", "Observer": "Reginald Maghfirot GZ", "Skor Aksesibilitas (0-100)": 37.0, "Skor Kondisi (0-100)": 1.0, "Skor Lingkungan (0-100)": 70, "SKOR TOTAL (AHP) (%)": 33.81666667, "Longitude": 110.3781961, "Latitude": -7.804210588, "Klasifikasi halte": "Rendah" }, "geometry": { "type": "Point", "coordinates": [ 110.3781961, -7.804210588 ] } },
{ "type": "Feature", "properties": { "Peringkat": 34, "Nama Halte": "Halte Portable Taman Siswa didepan Masjid Al Jihad", "Observer": "Reginald Maghfirot GZ", "Skor Aksesibilitas (0-100)": 23.9, "Skor Kondisi (0-100)": 13.0, "Skor Lingkungan (0-100)": 70, "SKOR TOTAL (AHP) (%)": 32.36444444, "Longitude": 110.3769565, "Latitude": -7.810990188, "Klasifikasi halte": "Rendah" }, "geometry": { "type": "Point", "coordinates": [ 110.3769565, -7.810990188 ] } },
{ "type": "Feature", "properties": { "Peringkat": 35, "Nama Halte": "Halte Terminal Ngabean di Depan Area Parkir Ngabean", "Observer": "Reginald Maghfirot GZ", "Skor Aksesibilitas (0-100)": 48.6, "Skor Kondisi (0-100)": 12.5, "Skor Lingkungan (0-100)": 30, "SKOR TOTAL (AHP) (%)": 31.91055556, "Longitude": 110.3563589, "Latitude": -7.8037059, "Klasifikasi halte": "Rendah" }, "geometry": { "type": "Point", "coordinates": [ 110.3563589, -7.8037059 ] } },
{ "type": "Feature", "properties": { "Peringkat": 37, "Nama Halte": "Halte Gedong Kuning di Depan Kehutanan, Balai Daerah Aliran Sungai Serayu Opak Progo", "Observer": "Mohammad Radyt Fahrasya", "Skor Aksesibilitas (0-100)": 18.8, "Skor Kondisi (0-100)": 37.5, "Skor Lingkungan (0-100)": 42, "SKOR TOTAL (AHP) (%)": 30.98722222, "Longitude": 110.4010909, "Latitude": -7.819606651, "Klasifikasi halte": "Rendah" }, "geometry": { "type": "Point", "coordinates": [ 110.4010909, -7.819606651 ] } },
{ "type": "Feature", "properties": { "Peringkat": 36, "Nama Halte": "Halte Susteran Jetis (A.M. Sangaji Timur)", "Observer": "Mohammad Radyt Fahrasya", "Skor Aksesibilitas (0-100)": 30.4, "Skor Kondisi (0-100)": 13.5, "Skor Lingkungan (0-100)": 54, "SKOR TOTAL (AHP) (%)": 31.02277778, "Longitude": 110.3680087, "Latitude": -7.775795579, "Klasifikasi halte": "Rendah" }, "geometry": { "type": "Point", "coordinates": [ 110.3680087, -7.775795579 ] } },
{ "type": "Feature", "properties": { "Peringkat": 38, "Nama Halte": "HALTE TJ SMPN 5 YOGYAKARTA", "Observer": "Rayhan Ardian", "Skor Aksesibilitas (0-100)": 55.8, "Skor Kondisi (0-100)": 0.0, "Skor Lingkungan (0-100)": 30, "SKOR TOTAL (AHP) (%)": 30.77333333, "Longitude": 110.3752707, "Latitude": -7.7871872, "Klasifikasi halte": "Rendah" }, "geometry": { "type": "Point", "coordinates": [ 110.3752707, -7.7871872 ] } },
{ "type": "Feature", "properties": { "Peringkat": 41, "Nama Halte": "TPB Sorogenen (Wirosaban) di Depan Ruko ", "Observer": "Mohammad Radyt Fahrasya", "Skor Aksesibilitas (0-100)": 5.1, "Skor Kondisi (0-100)": 37.5, "Skor Lingkungan (0-100)": 54, "SKOR TOTAL (AHP) (%)": 28.48833333, "Longitude": 110.3791759, "Latitude": -7.824734488, "Klasifikasi halte": "Rendah" }, "geometry": { "type": "Point", "coordinates": [ 110.3791759, -7.824734488 ] } },
{ "type": "Feature", "properties": { "Peringkat": 40, "Nama Halte": "HALTE SUDIRMAN BETHESDA", "Observer": "Rayhan Ardian", "Skor Aksesibilitas (0-100)": 51.4, "Skor Kondisi (0-100)": 0.0, "Skor Lingkungan (0-100)": 30, "SKOR TOTAL (AHP) (%)": 28.96444444, "Longitude": 110.3778626, "Latitude": -7.783064173, "Klasifikasi halte": "Rendah" }, "geometry": { "type": "Point", "coordinates": [ 110.3778626, -7.783064173 ] } },
{ "type": "Feature", "properties": { "Peringkat": 39, "Nama Halte": "TPB Lapangan Karang Kota Gede di Depan Taman Karang dan Lapangan Karang", "Observer": "Mohammad Radyt Fahrasya", "Skor Aksesibilitas (0-100)": 26.1, "Skor Kondisi (0-100)": 0.0, "Skor Lingkungan (0-100)": 70, "SKOR TOTAL (AHP) (%)": 29.00777778, "Longitude": 110.3963574, "Latitude": -7.822362551, "Klasifikasi halte": "Rendah" }, "geometry": { "type": "Point", "coordinates": [ 110.3963574, -7.822362551 ] } },
{ "type": "Feature", "properties": { "Peringkat": 42, "Nama Halte": "Halte SMPN11 di samping SMP N 11 Yogyakarta", "Observer": "Reginald Maghfirot GZ", "Skor Aksesibilitas (0-100)": 46.4, "Skor Kondisi (0-100)": 13.0, "Skor Lingkungan (0-100)": 18, "SKOR TOTAL (AHP) (%)": 28.03666667, "Longitude": 110.3533742, "Latitude": -7.793130551, "Klasifikasi halte": "Rendah" }, "geometry": { "type": "Point", "coordinates": [ 110.3533742, -7.793130551 ] } },
{ "type": "Feature", "properties": { "Peringkat": 43, "Nama Halte": "HALTE SMPN 1 YOGYAKARTA", "Observer": "Rayhan Ardian", "Skor Aksesibilitas (0-100)": 29.0, "Skor Kondisi (0-100)": 12.5, "Skor Lingkungan (0-100)": 42, "SKOR TOTAL (AHP) (%)": 26.98611111, "Longitude": 110.375734, "Latitude": -7.777552952, "Klasifikasi halte": "Rendah" }, "geometry": { "type": "Point", "coordinates": [ 110.375734, -7.777552952 ] } },
{ "type": "Feature", "properties": { "Peringkat": 44, "Nama Halte": "TPB Tarumartani Selatan di Depan PT Taru Martani dan di Sebrang Balai KPH Yogyakarta", "Observer": "Reginald Maghfirot GZ", "Skor Aksesibilitas (0-100)": 13.8, "Skor Kondisi (0-100)": 38.0, "Skor Lingkungan (0-100)": 30, "SKOR TOTAL (AHP) (%)": 25.96222222, "Longitude": 110.3819726, "Latitude": -7.790566735, "Klasifikasi halte": "Rendah" }, "geometry": { "type": "Point", "coordinates": [ 110.3819726, -7.790566735 ] } },
{ "type": "Feature", "properties": { "Peringkat": 45, "Nama Halte": "Halte Taman Siswa di Dekat Lintau Fotocopy dan Print", "Observer": "Reginald Maghfirot GZ", "Skor Aksesibilitas (0-100)": 23.9, "Skor Kondisi (0-100)": 1.0, "Skor Lingkungan (0-100)": 58, "SKOR TOTAL (AHP) (%)": 25.29777778, "Longitude": 110.3765, "Latitude": -7.813660888, "Klasifikasi halte": "Rendah" }, "geometry": { "type": "Point", "coordinates": [ 110.3765, -7.813660888 ] } },
{ "type": "Feature", "properties": { "Peringkat": 48, "Nama Halte": "TPB Pasar Giwangan 1 di Depan SMP & SMK Berbudi", "Observer": "Mohammad Radyt Fahrasya", "Skor Aksesibilitas (0-100)": 6.5, "Skor Kondisi (0-100)": 38.0, "Skor Lingkungan (0-100)": 30, "SKOR TOTAL (AHP) (%)": 22.96111111, "Longitude": 110.3900042, "Latitude": -7.831737722, "Klasifikasi halte": "Rendah" }, "geometry": { "type": "Point", "coordinates": [ 110.3900042, -7.831737722 ] } },
{ "type": "Feature", "properties": { "Peringkat": 46, "Nama Halte": "Halte Jokten Kulon - SMAN 7 di depan ADHI SURYA MOTOR", "Observer": "Reginald Maghfirot GZ", "Skor Aksesibilitas (0-100)": 46.4, "Skor Kondisi (0-100)": 1.0, "Skor Lingkungan (0-100)": 18, "SKOR TOTAL (AHP) (%)": 24.10333333, "Longitude": 110.3581612, "Latitude": -7.813493488, "Klasifikasi halte": "Rendah" }, "geometry": { "type": "Point", "coordinates": [ 110.3581612, -7.813493488 ] } },
{ "type": "Feature", "properties": { "Peringkat": 47, "Nama Halte": "Halte Kusumanegara 2 di Jalan Kusumanegara dekat Makam Pahlawan", "Observer": "Reginald Maghfirot GZ", "Skor Aksesibilitas (0-100)": 26.8, "Skor Kondisi (0-100)": 13.0, "Skor Lingkungan (0-100)": 30, "SKOR TOTAL (AHP) (%)": 23.11222222, "Longitude": 110.382151, "Latitude": -7.801912, "Klasifikasi halte": "Rendah" }, "geometry": { "type": "Point", "coordinates": [ 110.382151, -7.801912 ] } },
{ "type": "Feature", "properties": { "Peringkat": 49, "Nama Halte": "TPB Gudang SGM 2", "Observer": "Mohammad Radyt Fahrasya", "Skor Aksesibilitas (0-100)": 15.9, "Skor Kondisi (0-100)": 25.0, "Skor Lingkungan (0-100)": 30, "SKOR TOTAL (AHP) (%)": 22.56444444, "Longitude": 110.3900136, "Latitude": -7.827296156, "Klasifikasi halte": "Rendah" }, "geometry": { "type": "Point", "coordinates": [ 110.3900136, -7.827296156 ] } },
{ "type": "Feature", "properties": { "Peringkat": 50, "Nama Halte": "Halte PA Muhammadiyah di Depan Panti Asuhan Yatim Putra", "Observer": "Mohammad Radyt Fahrasya", "Skor Aksesibilitas (0-100)": 25.4, "Skor Kondisi (0-100)": 12.5, "Skor Lingkungan (0-100)": 30, "SKOR TOTAL (AHP) (%)": 22.37277778, "Longitude": 110.3759844, "Latitude": -7.816851924, "Klasifikasi halte": "Rendah" }, "geometry": { "type": "Point", "coordinates": [ 110.3759844, -7.816851924 ] } },
{ "type": "Feature", "properties": { "Peringkat": 52, "Nama Halte": "TPB S3 PSKY Umbulharjo", "Observer": "Mohammad Radyt Fahrasya", "Skor Aksesibilitas (0-100)": 22.5, "Skor Kondisi (0-100)": 13.5, "Skor Lingkungan (0-100)": 30, "SKOR TOTAL (AHP) (%)": 21.50833333, "Longitude": 110.3863732, "Latitude": -7.815705688, "Klasifikasi halte": "Rendah" }, "geometry": { "type": "Point", "coordinates": [ 110.3863732, -7.815705688 ] } },
{ "type": "Feature", "properties": { "Peringkat": 51, "Nama Halte": "HALTE TAKSI URIP SUMOHARJO", "Observer": "Rayhan Ardian", "Skor Aksesibilitas (0-100)": 18.1, "Skor Kondisi (0-100)": 0.0, "Skor Lingkungan (0-100)": 54, "SKOR TOTAL (AHP) (%)": 21.54111111, "Longitude": 110.3842867, "Latitude": -7.783115408, "Klasifikasi halte": "Rendah" }, "geometry": { "type": "Point", "coordinates": [ 110.3842867, -7.783115408 ] } },
{ "type": "Feature", "properties": { "Peringkat": 53, "Nama Halte": "Halte Sorogenen (Nitikan) di Area Pertokoan", "Observer": "Mohammad Radyt Fahrasya", "Skor Aksesibilitas (0-100)": 10.9, "Skor Kondisi (0-100)": 25.0, "Skor Lingkungan (0-100)": 30, "SKOR TOTAL (AHP) (%)": 20.50888889, "Longitude": 110.3798916, "Latitude": -7.824865819, "Klasifikasi halte": "Rendah" }, "geometry": { "type": "Point", "coordinates": [ 110.3798916, -7.824865819 ] } },
{ "type": "Feature", "properties": { "Peringkat": 54, "Nama Halte": "Halte SMKN 5 di Depan SMKN5 Yogyakarta", "Observer": "Reginald Maghfirot GZ", "Skor Aksesibilitas (0-100)": 21.7, "Skor Kondisi (0-100)": 0.5, "Skor Lingkungan (0-100)": 42, "SKOR TOTAL (AHP) (%)": 20.05166667, "Longitude": 110.3950222, "Latitude": -7.80041308, "Klasifikasi halte": "Rendah" }, "geometry": { "type": "Point", "coordinates": [ 110.3950222, -7.80041308 ] } },
{ "type": "Feature", "properties": { "Peringkat": 55, "Nama Halte": "TPB Rowanu di Dekat Homestay Puri Kafilia", "Observer": "Mohammad Radyt Fahrasya", "Skor Aksesibilitas (0-100)": 26.8, "Skor Kondisi (0-100)": 0.5, "Skor Lingkungan (0-100)": 30, "SKOR TOTAL (AHP) (%)": 19.015, "Longitude": 110.3760291, "Latitude": -7.817037736, "Klasifikasi halte": "Sangat Rendah" }, "geometry": { "type": "Point", "coordinates": [ 110.3760291, -7.817037736 ] } },
{ "type": "Feature", "properties": { "Peringkat": 56, "Nama Halte": "Halte Kenari 1 di Depan Fakultas Psikologi UNY dan di Sebelah Selatan Stadiun Mandala Krida", "Observer": "Reginald Maghfirot GZ", "Skor Aksesibilitas (0-100)": 26.1, "Skor Kondisi (0-100)": 0.0, "Skor Lingkungan (0-100)": 30, "SKOR TOTAL (AHP) (%)": 18.56333333, "Longitude": 110.3832306, "Latitude": -7.797533813, "Klasifikasi halte": "Sangat Rendah" }, "geometry": { "type": "Point", "coordinates": [ 110.3832306, -7.797533813 ] } },
{ "type": "Feature", "properties": { "Peringkat": 57, "Nama Halte": "Halte Trans BonBin di Jalan Kusumanegara", "Observer": "Reginald Maghfirot GZ", "Skor Aksesibilitas (0-100)": 0.0, "Skor Kondisi (0-100)": 25.0, "Skor Lingkungan (0-100)": 30, "SKOR TOTAL (AHP) (%)": 16.02777778, "Longitude": 110.3988688, "Latitude": -7.802311088, "Klasifikasi halte": "Sangat Rendah" }, "geometry": { "type": "Point", "coordinates": [ 110.3988688, -7.802311088 ] } },
{ "type": "Feature", "properties": { "Peringkat": 58, "Nama Halte": "TPB Gudang SGM 1", "Observer": "Mohammad Radyt Fahrasya", "Skor Aksesibilitas (0-100)": 15.2, "Skor Kondisi (0-100)": 13.5, "Skor Lingkungan (0-100)": 18, "SKOR TOTAL (AHP) (%)": 15.37388889, "Longitude": 110.3899383, "Latitude": -7.827094408, "Klasifikasi halte": "Sangat Rendah" }, "geometry": { "type": "Point", "coordinates": [ 110.3899383, -7.827094408 ] } },
{ "type": "Feature", "properties": { "Peringkat": 59, "Nama Halte": "Halte APMD Timur di Depan STPMD APMD Yogyakarta", "Observer": "Reginald Maghfirot GZ", "Skor Aksesibilitas (0-100)": 10.1, "Skor Kondisi (0-100)": 13.0, "Skor Lingkungan (0-100)": 18, "SKOR TOTAL (AHP) (%)": 13.11333333, "Longitude": 110.3933508, "Latitude": -7.791168292, "Klasifikasi halte": "Sangat Rendah" }, "geometry": { "type": "Point", "coordinates": [ 110.3933508, -7.791168292 ] } },
{ "type": "Feature", "properties": { "Peringkat": 60, "Nama Halte": "Halte Ngeksigondo (Diklat PU) di Depan Kantor Balai Pengembangan Kompetensi", "Observer": "Mohammad Radyt Fahrasya", "Skor Aksesibilitas (0-100)": 23.2, "Skor Kondisi (0-100)": 0.0, "Skor Lingkungan (0-100)": 6, "SKOR TOTAL (AHP) (%)": 11.10444444, "Longitude": 110.3949965, "Latitude": -7.818933411, "Klasifikasi halte": "Sangat Rendah" }, "geometry": { "type": "Point", "coordinates": [ 110.3949965, -7.818933411 ] } },
{ "type": "Feature", "properties": { "Peringkat": 61, "Nama Halte": "Halte Tegal Gendu 1", "Observer": "Mohammad Radyt Fahrasya", "Skor Aksesibilitas (0-100)": 16.7, "Skor Kondisi (0-100)": 1.0, "Skor Lingkungan (0-100)": 6, "SKOR TOTAL (AHP) (%)": 8.76, "Longitude": 110.3918387, "Latitude": -7.826017117, "Klasifikasi halte": "Sangat Rendah" }, "geometry": { "type": "Point", "coordinates": [ 110.3918387, -7.826017117 ] } },
{ "type": "Feature", "properties": { "Peringkat": 62, "Nama Halte": "Halte Widya Wiwaha 2 di Depan STIE Widya Wiwaha", "Observer": "Mohammad Radyt Fahrasya", "Skor Aksesibilitas (0-100)": 5.1, "Skor Kondisi (0-100)": 0.0, "Skor Lingkungan (0-100)": 18, "SKOR TOTAL (AHP) (%)": 6.796666667, "Longitude": 110.3775314, "Latitude": -7.822642588, "Klasifikasi halte": "Sangat Rendah" }, "geometry": { "type": "Point", "coordinates": [ 110.3775314, -7.822642588 ] } },
{ "type": "Feature", "properties": { "Peringkat": 63, "Nama Halte": "TPB Pasar Giwangan 2", "Observer": "Mohammad Radyt Fahrasya", "Skor Aksesibilitas (0-100)": 3.6, "Skor Kondisi (0-100)": 0.5, "Skor Lingkungan (0-100)": 18, "SKOR TOTAL (AHP) (%)": 6.343888889, "Longitude": 110.3901953, "Latitude": -7.832450449, "Klasifikasi halte": "Sangat Rendah" }, "geometry": { "type": "Point", "coordinates": [ 110.3901953, -7.832450449 ] } },
{ "type": "Feature", "properties": { "Peringkat": 64, "Nama Halte": "Halte Widya Wiwaha 1 di Depan STIE Widya Wiwaha", "Observer": "Mohammad Radyt Fahrasya", "Skor Aksesibilitas (0-100)": 3.6, "Skor Kondisi (0-100)": 0.0, "Skor Lingkungan (0-100)": 0, "SKOR TOTAL (AHP) (%)": 1.48, "Longitude": 110.3776763, "Latitude": -7.822836023, "Klasifikasi halte": "Sangat Rendah" }, "geometry": { "type": "Point", "coordinates": [ 110.3776763, -7.822836023 ] } }
]
}
